[{"OBJECT_NAME":"STARLINK-31279","OBJECT_ID":"2024-041N","EPOCH":"2026-03-09T09:40:15.756096","MEAN_MOTION":15.27575078,"ECCENTRICITY":0.00012748,"INCLINATION":43.0036,"RA_OF_ASC_NODE":312.6672,"ARG_OF_PERICENTER":267.95,"MEAN_ANOMALY":92.1205,"EPHEMERIS_TYPE":0,"CLASSIFICATION_TYPE":"U","NORAD_CAT_ID":59086,"ELEMENT_SET_NO":999,"REV_AT_EPOCH":11427,"BSTAR":-7.780595e-6,"MEAN_MOTION_DOT":-4.76e-6,"MEAN_MOTION_DDOT":0},{"OBJECT_NAME":"TEVEL2-7","OBJECT_ID":"2025-052AE","EPOCH":"2026-03-09T15:52:01.887744","MEAN_MOTION":15.28414096,"ECCENTRICITY":0.00081048,"INCLINATION":97.4054,"RA_OF_ASC_NODE":324.3041,"ARG_OF_PERICENTER":124.683,"MEAN_ANOMALY":235.5175,"EPHEMERIS_TYPE":0,"CLASSIFICATION_TYPE":"U","NORAD_CAT_ID":63238,"ELEMENT_SET_NO":999,"REV_AT_EPOCH":5480,"BSTAR":0.00069668191,"MEAN_MOTION_DOT":0.00019244,"MEAN_MOTION_DDOT":0}]
